[{"OBJECT_NAME":"ION SCV-008","OBJECT_ID":"2023-001AU","EPOCH":"2026-03-09T19:46:58.662912","MEAN_MOTION":15.2722664,"ECCENTRICITY":0.00151921,"INCLINATION":97.5676,"RA_OF_ASC_NODE":163.606,"ARG_OF_PERICENTER":8.542,"MEAN_ANOMALY":351.6074,"EPHEMERIS_TYPE":0,"CLASSIFICATION_TYPE":"U","NORAD_CAT_ID":55051,"ELEMENT_SET_NO":999,"REV_AT_EPOCH":17616,"BSTAR":0.00031422806,"MEAN_MOTION_DOT":8.336e-5,"MEAN_MOTION_DDOT":0},{"OBJECT_NAME":"STARLINK-35657","OBJECT_ID":"2025-257V","EPOCH":"2026-03-09T17:10:55.913088","MEAN_MOTION":15.30196269,"ECCENTRICITY":7.493e-5,"INCLINATION":53.1573,"RA_OF_ASC_NODE":217.1722,"ARG_OF_PERICENTER":112.2619,"MEAN_ANOMALY":247.8461,"EPHEMERIS_TYPE":0,"CLASSIFICATION_TYPE":"U","NORAD_CAT_ID":66399,"ELEMENT_SET_NO":999,"REV_AT_EPOCH":1972,"BSTAR":0.00066214276,"MEAN_MOTION_DOT":0.000193,"MEAN_MOTION_DDOT":0}]
